start=new Date('2022-02-09T00:00:00.000Z').valueOf();
sats=[{"CENTER_NAME":"EARTH","ELEMENT_SET_NO":"999","OBJECT_TYPE":"PAYLOAD","ECCENTRICITY":"0.00014310","TLE_LINE2":"2 48464  53.0568  41.7156 0001431  57.8731 302.2397 15.06395176 41878","SEMIMAJOR_AXIS":"6925.363","CLASSIFICATION_TYPE":"U","MEAN_MOTION_DOT":"0.00001161","RCS_SIZE":"LARGE","APOAPSIS":"548.219","MEAN_ELEMENT_THEORY":"SGP4","OBJECT_NAME":"STARLINK-2686","DECAY_DATE":null,"TIME_SYSTEM":"UTC","RA_OF_ASC_NODE":"41.7156","REF_FRAME":"TEME","INCLINATION":"53.0568","MEAN_ANOMALY":"302.2397","ARG_OF_PERICENTER":"57.8731","FILE":"3295096","TLE_LINE1":"1 48464U 21040AN  22039.41841294  .00001161  00000-0  96830-4 0  9991","LAUNCH_DATE":"2021-05-09","EPHEMERIS_TYPE":"0","NORAD_CAT_ID":"48464","EPOCH":"2022-02-08T10:02:30.878016","SITE":"AFETR","PERIAPSIS":"546.237","OBJECT_ID":"2021-040AN","MEAN_MOTION_DDOT":"0.0000000000000","REV_AT_EPOCH":"4187","BSTAR":"0.00009683000000","PERIOD":"95.592","GP_ID":"195547166","COUNTRY_CODE":"US","MEAN_MOTION":"15.06395176"},{"OBJECT_ID":"2021-040AP","PERIAPSIS":"546.213","GP_ID":"195580229","MEAN_MOTION":"15.06390368","COUNTRY_CODE":"US","BSTAR":"0.00001723500000","REV_AT_EPOCH":"4319","MEAN_MOTION_DDOT":"0.0000000000000","PERIOD":"95.593","TLE_LINE2":"2 48465  53.0554  40.4709 0001487  64.5797 295.5346 15.06390368 43195","RCS_SIZE":"LARGE","APOAPSIS":"548.273","CLASSIFICATION_TYPE":"U","MEAN_MOTION_DOT":"-0.00000025","SEMIMAJOR_AXIS":"6925.378","ELEMENT_SET_NO":"999","CENTER_NAME":"EARTH","ECCENTRICITY":"0.00014870","OBJECT_TYPE":"PAYLOAD","FILE":"3295329","ARG_OF_PERICENTER":"64.5797","MEAN_ANOMALY":"295.5346","INCLINATION":"53.0554","SITE":"AFETR","EPOCH":"2022-02-08T16:40:35.637888","EPHEMERIS_TYPE":"0","NORAD_CAT_ID":"48465","TLE_LINE1":"1 48465U 21040AP  22039.69485692 -.00000025  00000-0  17235-4 0  9999","LAUNCH_DATE":"2021-05-09","DECAY_DATE":null,"OBJECT_NAME":"STARLINK-2681","MEAN_ELEMENT_THEORY":"SGP4","REF_FRAME":"TEME","RA_OF_ASC_NODE":"40.4709","TIME_SYSTEM":"UTC"},{"PERIOD":"95.593","BSTAR":"0.00003509100000","REV_AT_EPOCH":"4188","MEAN_MOTION_DDOT":"0.0000000000000","COUNTRY_CODE":"US","MEAN_MOTION":"15.06391065","GP_ID":"195548666","OBJECT_ID":"2021-040AQ","PERIAPSIS":"546.031","RA_OF_ASC_NODE":"41.7272","REF_FRAME":"TEME","TIME_SYSTEM":"UTC","DECAY_DATE":null,"MEAN_ELEMENT_THEORY":"SGP4","OBJECT_NAME":"STARLINK-2687","EPOCH":"2022-02-08T09:57:13.568832","SITE":"AFETR","LAUNCH_DATE":"2021-05-09","TLE_LINE1":"1 48466U 21040AQ  22039.41474038  .00000241  00000-0  35091-4 0  9991","EPHEMERIS_TYPE":"0","NORAD_CAT_ID":"48466","ARG_OF_PERICENTER":"51.4705","FILE":"3295096","INCLINATION":"53.0560","MEAN_ANOMALY":"308.6440","OBJECT_TYPE":"PAYLOAD","ECCENTRICITY":"0.00017470","CENTER_NAME":"EARTH","ELEMENT_SET_NO":"999","APOAPSIS":"548.451","RCS_SIZE":"LARGE","SEMIMAJOR_AXIS":"6925.376","MEAN_MOTION_DOT":"0.00000241","CLASSIFICATION_TYPE":"U","TLE_LINE2":"2 48466  53.0560  41.7272 0001747  51.4705 308.6440 15.06391065 41885"},{"OBJECT_ID":"2021-040AR","PERIAPSIS":"546.195","GP_ID":"195548904","COUNTRY_CODE":"US","MEAN_MOTION":"15.06380382","BSTAR":"-0.00003601000000","REV_AT_EPOCH":"4188","MEAN_MOTION_DDOT":"0.0000000000000","PERIOD":"95.593","TLE_LINE2":"2 48467  53.0570  41.6155 0001557  63.8152 296.2997 15.06380382 41887","RCS_SIZE":"LARGE","APOAPSIS":"548.352","SEMIMAJOR_AXIS":"6925.409","MEAN_MOTION_DOT":"-0.00000818","CLASSIFICATION_TYPE":"U","CENTER_NAME":"EARTH","ELEMENT_SET_NO":"999","ECCENTRICITY":"0.00015570","OBJECT_TYPE":"PAYLOAD","ARG_OF_PERICENTER":"63.8152","FILE":"3295096","INCLINATION":"53.0570","MEAN_ANOMALY":"296.2997","SITE":"AFETR","EPOCH":"2022-02-08T10:34:23.046528","LAUNCH_DATE":"2021-05-09","TLE_LINE1":"1 48467U 21040AR  22039.44054452 -.00000818  00000-0 -36010-4 0  9993","NORAD_CAT_ID":"48467","EPHEMERIS_TYPE":"0","DECAY_DATE":null,"OBJECT_NAME":"STARLINK-2659","MEAN_ELEMENT_THEORY":"SGP4","RA_OF_ASC_NODE":"41.6155","REF_FRAME":"TEME","TIME_SYSTEM":"UTC"},{"ELEMENT_SET_NO":"999","CENTER_NAME":"EARTH","OBJECT_TYPE":"PAYLOAD","ECCENTRICITY":"0.00016390","TLE_LINE2":"2 48468  53.0563  41.3853 0001639  64.0496 296.0661 15.06388284 43165","APOAPSIS":"548.385","RCS_SIZE":"LARGE","MEAN_MOTION_DOT":"0.00000612","CLASSIFICATION_TYPE":"U","SEMIMAJOR_AXIS":"6925.384","DECAY_DATE":null,"OBJECT_NAME":"STARLINK-2685","MEAN_ELEMENT_THEORY":"SGP4","REF_FRAME":"TEME","RA_OF_ASC_NODE":"41.3853","TIME_SYSTEM":"UTC","FILE":"3294988","ARG_OF_PERICENTER":"64.0496","MEAN_ANOMALY":"296.0661","INCLINATION":"53.0563","EPOCH":"2022-02-08T11:43:22.990656","SITE":"AFETR","NORAD_CAT_ID":"48468","EPHEMERIS_TYPE":"0","TLE_LINE1":"1 48468U 21040AS  22039.48846054  .00000612  00000-0  60014-4 0  9996","LAUNCH_DATE":"2021-05-09","OBJECT_ID":"2021-040AS","PERIAPSIS":"546.114","BSTAR":"0.00006001400000","MEAN_MOTION_DDOT":"0.0000000000000","REV_AT_EPOCH":"4316","PERIOD":"95.593","GP_ID":"195523537","MEAN_MOTION":"15.06388284","COUNTRY_CODE":"US"},{"INCLINATION":"53.0559","MEAN_ANOMALY":"270.4300","ARG_OF_PERICENTER":"89.6839","FILE":"3295331","TLE_LINE1":"1 48469U 21040AT  22039.70223586  .00000481  00000-0  51213-4 0  9996","LAUNCH_DATE":"2021-05-09","NORAD_CAT_ID":"48469","EPHEMERIS_TYPE":"0","SITE":"AFETR","EPOCH":"2022-02-08T16:51:13.178304","OBJECT_NAME":"STARLINK-2661","MEAN_ELEMENT_THEORY":"SGP4","DECAY_DATE":null,"TIME_SYSTEM":"UTC","RA_OF_ASC_NODE":"40.4380","REF_FRAME":"TEME","TLE_LINE2":"2 48469  53.0559  40.4380 0001313  89.6839 270.4300 15.06391271 43198","SEMIMAJOR_AXIS":"6925.375","MEAN_MOTION_DOT":"0.00000481","CLASSIFICATION_TYPE":"U","RCS_SIZE":"LARGE","APOAPSIS":"548.150","CENTER_NAME":"EARTH","ELEMENT_SET_NO":"999","ECCENTRICITY":"0.00013130","OBJECT_TYPE":"PAYLOAD","GP_ID":"195579747","COUNTRY_CODE":"US","MEAN_MOTION":"15.06391271","MEAN_MOTION_DDOT":"0.0000000000000","REV_AT_EPOCH":"4319","BSTAR":"0.00005121300000","PERIOD":"95.593","PERIAPSIS":"546.331","OBJECT_ID":"2021-040AT"},{"BSTAR":"0.00010915000000","MEAN_MOTION_DDOT":"0.0000000000000","REV_AT_EPOCH":"4319","PERIOD":"95.593","GP_ID":"195579189","MEAN_MOTION":"15.06390182","COUNTRY_CODE":"US","OBJECT_ID":"2021-040AU","PERIAPSIS":"545.762","DECAY_DATE":null,"OBJECT_NAME":"STARLINK-2675","MEAN_ELEMENT_THEORY":"SGP4","REF_FRAME":"TEME","RA_OF_ASC_NODE":"40.4482","TIME_SYSTEM":"UTC","FILE":"3295293","ARG_OF_PERICENTER":"50.2453","MEAN_ANOMALY":"309.8725","INCLINATION":"53.0565","EPOCH":"2022-02-08T16:45:54.367488","SITE":"AFETR","NORAD_CAT_ID":"48470","EPHEMERIS_TYPE":"0","TLE_LINE1":"1 48470U 21040AU  22039.69854592  .00001344  00000-0  10915-3 0  9995","LAUNCH_DATE":"2021-05-09","ELEMENT_SET_NO":"999","CENTER_NAME":"EARTH","ECCENTRICITY":"0.00021390","OBJECT_TYPE":"PAYLOAD","TLE_LINE2":"2 48470  53.0565  40.4482 0002139  50.2453 309.8725 15.06390182 43191","APOAPSIS":"548.725","RCS_SIZE":"LARGE","MEAN_MOTION_DOT":"0.00001344","CLASSIFICATION_TYPE":"U","SEMIMAJOR_AXIS":"6925.379"},{"PERIOD":"95.593","REV_AT_EPOCH":"4319","MEAN_MOTION_DDOT":"0.0000000000000","BSTAR":"0.00008737600000","MEAN_MOTION":"15.06393053","COUNTRY_CODE":"US","GP_ID":"195580246","PERIAPSIS":"546.096","OBJECT_ID":"2021-040AV","TIME_SYSTEM":"UTC","REF_FRAME":"TEME","RA_OF_ASC_NODE":"40.4903","MEAN_ELEMENT_THEORY":"SGP4","OBJECT_NAME":"STARLINK-2684","DECAY_DATE":null,"EPHEMERIS_TYPE":"0","NORAD_CAT_ID":"48471","TLE_LINE1":"1 48471U 21040AV  22039.69117680  .00001020  00000-0  87376-4 0  9993","LAUNCH_DATE":"2021-05-09","SITE":"AFETR","EPOCH":"2022-02-08T16:35:17.675520","MEAN_ANOMALY":"298.2946","INCLINATION":"53.0561","FILE":"3295331","ARG_OF_PERICENTER":"61.8209","OBJECT_TYPE":"PAYLOAD","ECCENTRICITY":"0.00016450","ELEMENT_SET_NO":"999","CENTER_NAME":"EARTH","MEAN_MOTION_DOT":"0.00001020","CLASSIFICATION_TYPE":"U","SEMIMAJOR_AXIS":"6925.370","RCS_SIZE":"LARGE","APOAPSIS":"548.374","TLE_LINE2":"2 48471  53.0561  40.4903 0001645  61.8209 298.2946 15.06393053 43190"},{"OBJECT_ID":"2021-040AW","PERIAPSIS":"546.135","BSTAR":"0.00008404000000","REV_AT_EPOCH":"4186","MEAN_MOTION_DDOT":"0.0000000000000","PERIOD":"95.593","GP_ID":"195547167","COUNTRY_CODE":"US","MEAN_MOTION":"15.06392831","CENTER_NAME":"EARTH","ELEMENT_SET_NO":"999","OBJECT_TYPE":"PAYLOAD","ECCENTRICITY":"0.00015890","TLE_LINE2":"2 48472  53.0560  41.7496 0001589  57.1581 302.9561 15.06392831 41860","RCS_SIZE":"LARGE","APOAPSIS":"548.336","SEMIMAJOR_AXIS":"6925.371","CLASSIFICATION_TYPE":"U","MEAN_MOTION_DOT":"0.00000970","DECAY_DATE":null,"OBJECT_NAME":"STARLINK-2722","MEAN_ELEMENT_THEORY":"SGP4","RA_OF_ASC_NODE":"41.7496","REF_FRAME":"TEME","TIME_SYSTEM":"UTC","ARG_OF_PERICENTER":"57.1581","FILE":"3295096","INCLINATION":"53.0560","MEAN_ANOMALY":"302.9561","SITE":"AFETR","EPOCH":"2022-02-08T09:46:36.133824","TLE_LINE1":"1 48472U 21040AW  22039.40736266  .00000970  00000-0  84040-4 0  9998","LAUNCH_DATE":"2021-05-09","NORAD_CAT_ID":"48472","EPHEMERIS_TYPE":"0"},{"ECCENTRICITY":"0.00017210","OBJECT_TYPE":"PAYLOAD","ELEMENT_SET_NO":"999","CENTER_NAME":"EARTH","MEAN_MOTION_DOT":"-0.00000406","CLASSIFICATION_TYPE":"U","SEMIMAJOR_AXIS":"6925.392","APOAPSIS":"548.449","RCS_SIZE":"LARGE","TLE_LINE2":"2 48473  53.0560  41.8996 0001721  66.1142 294.0027 15.06385766 41865","TIME_SYSTEM":"UTC","REF_FRAME":"TEME","RA_OF_ASC_NODE":"41.8996","OBJECT_NAME":"STARLINK-2658","MEAN_ELEMENT_THEORY":"SGP4","DECAY_DATE":null,"NORAD_CAT_ID":"48473","EPHEMERIS_TYPE":"0","LAUNCH_DATE":"2021-05-09","TLE_LINE1":"1 48473U 21040AX  22039.37788244 -.00000406  00000-0 -83588-5 0  9991","EPOCH":"2022-02-08T09:04:09.042816","SITE":"AFETR","MEAN_ANOMALY":"294.0027","INCLINATION":"53.0560","FILE":"3295096","ARG_OF_PERICENTER":"66.1142","PERIAPSIS":"546.065","OBJECT_ID":"2021-040AX","PERIOD":"95.593","MEAN_MOTION_DDOT":"0.0000000000000","REV_AT_EPOCH":"4186","BSTAR":"-0.00000835880000","MEAN_MOTION":"15.06385766","COUNTRY_CODE":"US","GP_ID":"195548415"}];
